{
  "type": "FeatureCollection",
  "features": [
    {
      "type": "Feature",
      "properties": {
        "norad_id": 38251,
        "name": "BEIDOU-2 M4 (C12)",
        "group": "beidou",
        "lat": NaN,
        "lon": NaN,
        "alt_km": NaN,
        "timestamp": "2025-12-01T03:12:44.530521+00:00",
        "meta": {
          "OBJECT_NAME": "BEIDOU-2 M4 (C12)",
          "OBJECT_ID": "2012-018B",
          "EPOCH": "2025-11-30T10:42:30.206880",
          "MEAN_MOTION": 1.86229429,
          "ECCENTRICITY": 0.0015683,
          "INCLINATION": 55.8321,
          "RA_OF_ASC_NODE": 310.801,
          "ARG_OF_PERICENTER": 276.2747,
          "MEAN_ANOMALY": 83.5448,
          "EPHEMERIS_TYPE": 0,
          "CLASSIFICATION_TYPE": "U",
          "NORAD_CAT_ID": 38251,
          "ELEMENT_SET_NO": 999,
          "REV_AT_EPOCH": 9224,
          "BSTAR": 0,
          "MEAN_MOTION_DOT": -5e-07,
          "MEAN_MOTION_DDOT": 0
        }
      },
      "geometry": {
        "type": "Point",
        "coordinates": [
          NaN,
          NaN
        ]
      }
    },
    {
      "type": "Feature",
      "properties": {
        "norad_id": 38775,
        "name": "BEIDOU-2 M6 (C14)",
        "group": "beidou",
        "lat": NaN,
        "lon": NaN,
        "alt_km": NaN,
        "timestamp": "2025-12-01T03:12:44.530531+00:00",
        "meta": {
          "OBJECT_NAME": "BEIDOU-2 M6 (C14)",
          "OBJECT_ID": "2012-050B",
          "EPOCH": "2025-11-30T03:46:17.715072",
          "MEAN_MOTION": 1.86230748,
          "ECCENTRICITY": 0.00108176,
          "INCLINATION": 56.3677,
          "RA_OF_ASC_NODE": 69.4852,
          "ARG_OF_PERICENTER": 346.8684,
          "MEAN_ANOMALY": 13.1099,
          "EPHEMERIS_TYPE": 0,
          "CLASSIFICATION_TYPE": "U",
          "NORAD_CAT_ID": 38775,
          "ELEMENT_SET_NO": 999,
          "REV_AT_EPOCH": 8960,
          "BSTAR": 0,
          "MEAN_MOTION_DOT": -3.1e-07,
          "MEAN_MOTION_DDOT": 0
        }
      },
      "geometry": {
        "type": "Point",
        "coordinates": [
          NaN,
          NaN
        ]
      }
    },
    {
      "type": "Feature",
      "properties": {
        "norad_id": 38953,
        "name": "BEIDOU-2 G6 (C02)",
        "group": "beidou",
        "lat": NaN,
        "lon": NaN,
        "alt_km": NaN,
        "timestamp": "2025-12-01T03:12:44.530538+00:00",
        "meta": {
          "OBJECT_NAME": "BEIDOU-2 G6 (C02)",
          "OBJECT_ID": "2012-059A",
          "EPOCH": "2025-11-30T21:05:28.859136",
          "MEAN_MOTION": 1.00271306,
          "ECCENTRICITY": 0.0007241,
          "INCLINATION": 3.9163,
          "RA_OF_ASC_NODE": 75.6183,
          "ARG_OF_PERICENTER": 291.4402,
          "MEAN_ANOMALY": 103.3729,
          "EPHEMERIS_TYPE": 0,
          "CLASSIFICATION_TYPE": "U",
          "NORAD_CAT_ID": 38953,
          "ELEMENT_SET_NO": 999,
          "REV_AT_EPOCH": 4792,
          "BSTAR": 0,
          "MEAN_MOTION_DOT": -1.54e-06,
          "MEAN_MOTION_DDOT": 0
        }
      },
      "geometry": {
        "type": "Point",
        "coordinates": [
          NaN,
          NaN
        ]
      }
    },
    {
      "type": "Feature",
      "properties": {
        "norad_id": 40748,
        "name": "BEIDOU-3S M2S (C58)",
        "group": "beidou",
        "lat": NaN,
        "lon": NaN,
        "alt_km": NaN,
        "timestamp": "2025-12-01T03:12:44.530973+00:00",
        "meta": {
          "OBJECT_NAME": "BEIDOU-3S M2S (C58)",
          "OBJECT_ID": "2015-037A",
          "EPOCH": "2025-11-30T02:44:35.051712",
          "MEAN_MOTION": 1.86229103,
          "ECCENTRICITY": 0.0012501,
          "INCLINATION": 55.0501,
          "RA_OF_ASC_NODE": 308.8973,
          "ARG_OF_PERICENTER": 266.9712,
          "MEAN_ANOMALY": 92.8835,
          "EPHEMERIS_TYPE": 0,
          "CLASSIFICATION_TYPE": "U",
          "NORAD_CAT_ID": 40748,
          "ELEMENT_SET_NO": 999,
          "REV_AT_EPOCH": 7041,
          "BSTAR": 0,
          "MEAN_MOTION_DOT": -5e-07,
          "MEAN_MOTION_DDOT": 0
        }
      },
      "geometry": {
        "type": "Point",
        "coordinates": [
          NaN,
          NaN
        ]
      }
    },
    {
      "type": "Feature",
      "properties": {
        "norad_id": 40749,
        "name": "BEIDOU-3S M1S (C57)",
        "group": "beidou",
        "lat": NaN,
        "lon": NaN,
        "alt_km": NaN,
        "timestamp": "2025-12-01T03:12:44.530979+00:00",
        "meta": {
          "OBJECT_NAME": "BEIDOU-3S M1S (C57)",
          "OBJECT_ID": "2015-037B",
          "EPOCH": "2025-11-26T01:13:29.678016",
          "MEAN_MOTION": 1.8625392,
          "ECCENTRICITY": 0.00032681,
          "INCLINATION": 55.0504,
          "RA_OF_ASC_NODE": 309.0266,
          "ARG_OF_PERICENTER": 354.4635,
          "MEAN_ANOMALY": 5.5327,
          "EPHEMERIS_TYPE": 0,
          "CLASSIFICATION_TYPE": "U",
          "NORAD_CAT_ID": 40749,
          "ELEMENT_SET_NO": 999,
          "REV_AT_EPOCH": 7034,
          "BSTAR": 0,
          "MEAN_MOTION_DOT": -4e-07,
          "MEAN_MOTION_DDOT": 0
        }
      },
      "geometry": {
        "type": "Point",
        "coordinates": [
          NaN,
          NaN
        ]
      }
    },
    {
      "type": "Feature",
      "properties": {
        "norad_id": 40938,
        "name": "BEIDOU-3S IGSO-2S (C56)",
        "group": "beidou",
        "lat": NaN,
        "lon": NaN,
        "alt_km": NaN,
        "timestamp": "2025-12-01T03:12:44.530987+00:00",
        "meta": {
          "OBJECT_NAME": "BEIDOU-3S IGSO-2S (C56)",
          "OBJECT_ID": "2015-053A",
          "EPOCH": "2025-11-30T14:22:32.938176",
          "MEAN_MOTION": 1.00272475,
          "ECCENTRICITY": 0.0061056,
          "INCLINATION": 49.5325,
          "RA_OF_ASC_NODE": 261.1514,
          "ARG_OF_PERICENTER": 188.8099,
          "MEAN_ANOMALY": 291.5463,
          "EPHEMERIS_TYPE": 0,
          "CLASSIFICATION_TYPE": "U",
          "NORAD_CAT_ID": 40938,
          "ELEMENT_SET_NO": 999,
          "REV_AT_EPOCH": 3736,
          "BSTAR": 0,
          "MEAN_MOTION_DOT": -1.61e-06,
          "MEAN_MOTION_DDOT": 0
        }
      },
      "geometry": {
        "type": "Point",
        "coordinates": [
          NaN,
          NaN
        ]
      }
    },
    {
      "type": "Feature",
      "properties": {
        "norad_id": 41434,
        "name": "BEIDOU-2 IGSO-6 (C13)",
        "group": "beidou",
        "lat": NaN,
        "lon": NaN,
        "alt_km": NaN,
        "timestamp": "2025-12-01T03:12:44.531417+00:00",
        "meta": {
          "OBJECT_NAME": "BEIDOU-2 IGSO-6 (C13)",
          "OBJECT_ID": "2016-021A",
          "EPOCH": "2025-11-29T16:01:16.721760",
          "MEAN_MOTION": 1.00257137,
          "ECCENTRICITY": 0.00590915,
          "INCLINATION": 59.9454,
          "RA_OF_ASC_NODE": 40.0323,
          "ARG_OF_PERICENTER": 231.0312,
          "MEAN_ANOMALY": 130.2075,
          "EPHEMERIS_TYPE": 0,
          "CLASSIFICATION_TYPE": "U",
          "NORAD_CAT_ID": 41434,
          "ELEMENT_SET_NO": 999,
          "REV_AT_EPOCH": 3548,
          "BSTAR": 0,
          "MEAN_MOTION_DOT": -1.5e-06,
          "MEAN_MOTION_DDOT": 0
        }
      },
      "geometry": {
        "type": "Point",
        "coordinates": [
          NaN,
          NaN
        ]
      }
    },
    {
      "type": "Feature",
      "properties": {
        "norad_id": 41586,
        "name": "BEIDOU-2 G7 (C03)",
        "group": "beidou",
        "lat": NaN,
        "lon": NaN,
        "alt_km": NaN,
        "timestamp": "2025-12-01T03:12:44.531827+00:00",
        "meta": {
          "OBJECT_NAME": "BEIDOU-2 G7 (C03)",
          "OBJECT_ID": "2016-037A",
          "EPOCH": "2025-11-30T21:07:21.929088",
          "MEAN_MOTION": 1.00273141,
          "ECCENTRICITY": 0.0004541,
          "INCLINATION": 1.7254,
          "RA_OF_ASC_NODE": 67.6531,
          "ARG_OF_PERICENTER": 6.4845,
          "MEAN_ANOMALY": 63.1901,
          "EPHEMERIS_TYPE": 0,
          "CLASSIFICATION_TYPE": "U",
          "NORAD_CAT_ID": 41586,
          "ELEMENT_SET_NO": 999,
          "REV_AT_EPOCH": 490,
          "BSTAR": 0,
          "MEAN_MOTION_DOT": -3.32e-06,
          "MEAN_MOTION_DDOT": 0
        }
      },
      "geometry": {
        "type": "Point",
        "coordinates": [
          NaN,
          NaN
        ]
      }
    }
  ]
}