BEIDOU-2 M4             
1 38251U 12018B   25334.44618295 -.00000050  00000+0  00000+0 0  9991
2 38251  55.8321 310.8010 0015683 276.2747  83.5448  1.86229429 92248
BEIDOU-2 M6             
1 38775U 12050B   25334.15714948 -.00000031  00000+0  00000+0 0  9997
2 38775  56.3677  69.4852 0010817 346.8684  13.1099  1.86230748 89601
BEIDOU-2 G6             
1 38953U 12059A   25334.87880624 -.00000154  00000+0  00000+0 0  9994
2 38953   3.9163  75.6183 0007241 291.4402 103.3729  1.00271306 47925
BEIDOU-3S M2S           
1 40748U 15037A   25334.11429458 -.00000050  00000+0  00000+0 0  9994
2 40748  55.0501 308.8973 0012501 266.9712  92.8835  1.86229103 70410
BEIDOU-3S M1S           
1 40749U 15037B   25330.05103794 -.00000040  00000+0  00000+0 0  9995
2 40749  55.0504 309.0266 0003268 354.4635   5.5327  1.86253920 70342
BEIDOU-3S IGSO-2S       
1 40938U 15053A   25334.59899234 -.00000161  00000+0  00000+0 0  9991
2 40938  49.5325 261.1514 0061056 188.8099 291.5463  1.00272475 37362
BEIDOU-2 IGSO-6         
1 41434U 16021A   25333.66755465 -.00000150  00000+0  00000+0 0  9991
2 41434  59.9454  40.0323 0059091 231.0312 130.2075  1.00257137 35486
BEIDOU-2 G7             
1 41586U 16037A   25334.88011492 -.00000332  00000+0  00000+0 0  9998
2 41586   1.7254  67.6531 0004541   6.4845  63.1901  1.00273141  4906
